[{"OBJECT_NAME":"STARLINK-35194","OBJECT_ID":"2025-211V","EPOCH":"2026-03-09T16:04:17.948352","MEAN_MOTION":15.0565103,"ECCENTRICITY":3.623e-5,"INCLINATION":97.6041,"RA_OF_ASC_NODE":114.1197,"ARG_OF_PERICENTER":163.8944,"MEAN_ANOMALY":196.2295,"EPHEMERIS_TYPE":0,"CLASSIFICATION_TYPE":"U","NORAD_CAT_ID":65671,"ELEMENT_SET_NO":999,"REV_AT_EPOCH":2704,"BSTAR":0.00037937304,"MEAN_MOTION_DOT":5.418e-5,"MEAN_MOTION_DDOT":0},{"OBJECT_NAME":"FENGYUN 1C DEB","OBJECT_ID":"1999-025EB","EPOCH":"2026-03-09T21:27:48.971520","MEAN_MOTION":14.9364801,"ECCENTRICITY":0.00856057,"INCLINATION":99.085,"RA_OF_ASC_NODE":69.4314,"ARG_OF_PERICENTER":339.4426,"MEAN_ANOMALY":20.3352,"EPHEMERIS_TYPE":0,"CLASSIFICATION_TYPE":"U","NORAD_CAT_ID":29833,"ELEMENT_SET_NO":999,"REV_AT_EPOCH":1871,"BSTAR":0.0015409165,"MEAN_MOTION_DOT":0.00017454,"MEAN_MOTION_DDOT":0}]
